{
    "links": {
        "self": "http://www.neowsapp.com/rest/v1/neo/3445073?api_key=iIulBulltgU6a56xZRHN4H3l9WmuAYTsLGpBGhQ2"
    },
    "id": "3445073",
    "neo_reference_id": "3445073",
    "name": "(2009 BH58)",
    "designation": "2009 BH58",
    "nasa_jpl_url": "http://ssd.jpl.nasa.gov/sbdb.cgi?sstr=3445073",
    "absolute_magnitude_h": 23.5,
    "estimated_diameter": {
        "kilometers": {
            "estimated_diameter_min": 0.0530340723,
            "estimated_diameter_max": 0.1185877909
        },
        "meters": {
            "estimated_diameter_min": 53.0340723319,
            "estimated_diameter_max": 118.5877908577
        },
        "miles": {
            "estimated_diameter_min": 0.0329538346,
            "estimated_diameter_max": 0.0736870142
        },
        "feet": {
            "estimated_diameter_min": 173.9963058693,
            "estimated_diameter_max": 389.0675677576
        }
    },
    "is_potentially_hazardous_asteroid": false,
    "close_approach_data": [
        {
            "close_approach_date": "1986-04-06",
            "close_approach_date_full": "1986-Apr-06 03:00",
            "epoch_date_close_approach": 513140400000,
            "relative_velocity": {
                "kilometers_per_second": "19.1536735371",
                "kilometers_per_hour": "68953.2247335733",
                "miles_per_hour": "42844.8523351473"
            },
            "miss_distance": {
                "astronomical": "0.4022626224",
                "lunar": "156.4801601136",
                "kilometers": "60177631.491654288",
                "miles": "37392646.2888656544"
            },
            "orbiting_body": "Earth"
        },
        {
            "close_approach_date": "1988-12-20",
            "close_approach_date_full": "1988-Dec-20 02:10",
            "epoch_date_close_approach": 598587000000,
            "relative_velocity": {
                "kilometers_per_second": "17.1170797626",
                "kilometers_per_hour": "61621.4871452585",
                "miles_per_hour": "38289.1957208969"
            },
            "miss_distance": {
                "astronomical": "0.3380994148",
                "lunar": "131.5206723572",
                "kilometers": "50578952.302326476",
                "miles": "31428303.6108623288"
            },
            "orbiting_body": "Earth"
        },
        {
            "close_approach_date": "2000-03-26",
            "close_approach_date_full": "2000-Mar-26 14:50",
            "epoch_date_close_approach": 954082200000,
            "relative_velocity": {
                "kilometers_per_second": "14.5416361694",
                "kilometers_per_hour": "52349.8902100124",
                "miles_per_hour": "32528.185947438"
            },
            "miss_distance": {
                "astronomical": "0.0945901943",
                "lunar": "36.7955855827",
                "kilometers": "14150491.590166141",
                "miles": "8792707.7508531058"
            },
            "orbiting_body": "Mars"
        },
        {
            "close_approach_date": "2009-01-24",
            "close_approach_date_full": "2009-Jan-24 09:41",
            "epoch_date_close_approach": 1232790060000,
            "relative_velocity": {
                "kilometers_per_second": "7.3140732347",
                "kilometers_per_hour": "26330.6636450636",
                "miles_per_hour": "16360.8504187896"
            },
            "miss_distance": {
                "astronomical": "0.0369288489",
                "lunar": "14.3653222221",
                "kilometers": "5524477.136991843",
                "miles": "3432750.9141517134"
            },
            "orbiting_body": "Earth"
        },
        {
            "close_approach_date": "2092-04-10",
            "close_approach_date_full": "2092-Apr-10 17:29",
            "epoch_date_close_approach": 3858686940000,
            "relative_velocity": {
                "kilometers_per_second": "21.0837973798",
                "kilometers_per_hour": "75901.6705672642",
                "miles_per_hour": "47162.3463588648"
            },
            "miss_distance": {
                "astronomical": "0.4678348402",
                "lunar": "181.9877528378",
                "kilometers": "69987095.605710374",
                "miles": "43487964.6456722012"
            },
            "orbiting_body": "Earth"
        }
    ],
    "orbital_data": {
        "orbit_id": "15",
        "orbit_determination_date": "2017-04-06 09:01:32",
        "first_observation_date": "2009-01-28",
        "last_observation_date": "2009-04-16",
        "data_arc_in_days": 78,
        "observations_used": 46,
        "orbit_uncertainty": "6",
        "minimum_orbit_intersection": ".0135439",
        "jupiter_tisserand_invariant": "3.656",
        "epoch_osculation": "2459000.5",
        "eccentricity": ".5040134022035211",
        "semi_major_axis": "2.014088201021356",
        "inclination": "3.69473651822336",
        "ascending_node_longitude": "147.0881696065194",
        "orbital_period": "1044.037636391585",
        "perihelion_distance": ".9989607544866131",
        "perihelion_argument": "351.4202717042408",
        "aphelion_distance": "3.029215647556099",
        "perihelion_time": "2459042.813285451603",
        "mean_anomaly": "345.4097378948669",
        "mean_motion": ".3448151555572614",
        "equinox": "J2000",
        "orbit_class": {
            "orbit_class_type": "APO",
            "orbit_class_description": "Near-Earth asteroid orbits which cross the Earth’s orbit similar to that of 1862 Apollo",
            "orbit_class_range": "a (semi-major axis) > 1.0 AU; q (perihelion) < 1.017 AU"
        }
    },
    "is_sentry_object": false
}